COMMENT,ORIGINATOR,NORAD_CAT_ID,OBJECT_NAME,OBJECT_TYPE,CLASSIFICATION_TYPE,INTLDES,EPOCH,EPOCH_MICROSECONDS,MEAN_MOTION,ECCENTRICITY,INCLINATION,RA_OF_ASC_NODE,ARG_OF_PERICENTER,MEAN_ANOMALY,EPHEMERIS_TYPE,ELEMENT_SET_NO,REV_AT_EPOCH,BSTAR,MEAN_MOTION_DOT,MEAN_MOTION_DDOT,FILE,TLE_LINE0,TLE_LINE1,TLE_LINE2,OBJECT_ID,OBJECT_NUMBER,SEMIMAJOR_AXIS,PERIOD,APOGEE,PERIGEE
"GENERATED VIA SPACETRACK.ORG API","JSPOC","4327","SERT 2","PAYLOAD","U","70009A","2016-01-14 05:05:37","8960","13.58406188","0.0004042","99.2923","129.0393","291.5957","126.9886","0","999","27689","0.00026962","1.55e-06","0","1980048","0 SERT 2","1 04327U 70009A   16014.21223390  .00000155  00000-0  26962-3 0  9995","2 04327  99.2923 129.0393 0004042 291.5957 126.9886 13.58406188276893","1970-009A","4327","7419.627","106.006","1044.491","1038.493"
"GENERATED VIA SPACETRACK.ORG API","JSPOC","10702","LANDSAT 3","PAYLOAD","U","78026A","2016-01-14 05:05:38","189184","13.96634491","0.0014156","98.8498","58.201","208.8742","192.6168","0","999","93031","2.6871e-05","-5e-08","0","1980247","0 LANDSAT 3","1 10702U 78026A   16014.21224756 -.00000005  00000-0  26871-4 0  9998","2 10702  98.8498  58.2010 0014156 208.8742 192.6168 13.96634491930317","1978-026A","10702","7283.609","103.105","915.785","895.164"
"GENERATED VIA SPACETRACK.ORG API","JSPOC","40900","NUDT-PHONESAT","PAYLOAD","U","15049B","2016-01-14 05:05:46","803264","15.15007706","0.0014187","97.4468","24.8618","231.012","261.595","0","999","1759","0.0003709","6.879e-05","0","1980124","0 NUDT-PHONESAT","1 40900U 15049B   16014.21234726  .00006879  00000-0  37090-3 0  9993","2 40900  97.4468  24.8618 0014187 231.0120 261.5950 15.15007706 17594","2015-049B","40900","6899.092","95.049","530.744","511.169"
"GENERATED VIA SPACETRACK.ORG API","JSPOC","31792","COSMOS 2428","PAYLOAD","U","07029A","2016-01-14 05:06:03","632256","14.12449394","0.0010322","70.9583","63.1604","332.9547","102.7279","0","999","44065","0.0001","1.37e-06","0","1980007","0 COSMOS 2428","1 31792U 07029A   16014.21254204  .00000137  00000-0  10000-3 0  9997","2 31792  70.9583  63.1604 0010322 332.9547 102.7279 14.12449394440655","2007-029A","31792","7229.139","101.950","858.465","843.542"
"GENERATED VIA SPACETRACK.ORG API","JSPOC","22782","METEOR 2-21","PAYLOAD","U","93055A","2016-01-14 05:06:20","229696","13.83782817","0.0023751","82.5484","76.2263","89.7143","323.2558","0","999","12978","-2.7911e-05","-1.6e-07","0","1980045","0 METEOR 2-21","1 22782U 93055A   16014.21273414 -.00000016  00000-0 -27911-4 0  9992","2 22782  82.5484  76.2263 0023751  89.7143 323.2558 13.83782817129783","1993-055A","22782","7328.637","104.062","967.908","933.095"
"GENERATED VIA SPACETRACK.ORG API","JSPOC","19038","COSMOS 1937","PAYLOAD","U","88029A","2016-01-14 05:06:24","447744","14.35123793","0.0024504","74.045","242.2975","187.9056","311.1898","0","999","45380","2.1039e-05","3.4e-07","0","1980161","0 COSMOS 1937","1 19038U 88029A   16014.21278296  .00000034  00000-0  21039-4 0  9993","2 19038  74.0450 242.2975 0024504 187.9056 311.1898 14.35123793453804","1988-029A","19038","7152.792","100.339","792.184","757.129"
"GENERATED VIA SPACETRACK.ORG API","JSPOC","33494","SPRITE-SAT (RISING)","PAYLOAD","U","09002C","2016-01-14 05:06:31","889376","14.71203893","0.0003669","98.2341","147.4435","177.8257","182.2966","0","999","37408","6.5652e-05","3.53e-06","0","1980075","0 SPRITE-SAT (RISING)","1 33494U 09002C   16014.21286909  .00000353  00000-0  65652-4 0  9992","2 33494  98.2341 147.4435 0003669 177.8257 182.2966 14.71203893374085","2009-002C","33494","7035.364","97.879","659.810","654.648"
"GENERATED VIA SPACETRACK.ORG API","JSPOC","9904","SL-3 R/B","ROCKET BODY","U","77024B","2016-01-14 05:06:35","753184","14.06811435","0.0054824","81.2625","272.2661","354.5095","5.5466","0","999","98969","-5.8048e-05","-8.6e-07","0","1980065","0 SL-3 R/B","1 09904U 77024B   16014.21291381 -.00000086  00000-0 -58048-4 0  9996","2 09904  81.2625 272.2661 0054824 354.5095   5.5466 14.06811435989698","1977-024B","9904","7248.440","102.359","910.044","830.566"
"GENERATED VIA SPACETRACK.ORG API","JSPOC","40016","SAUDISAT 4","PAYLOAD","U","14033G","2016-01-14 05:06:59","741280","14.74941226","0.0049006","97.9245","268.5298","160.3239","199.9876","0","999","8451","4.0084e-05","2.22e-06","0","1980121","0 SAUDISAT 4","1 40016U 14033G   16014.21319145  .00000222  00000-0  40084-4 0  9996","2 40016  97.9245 268.5298 0049006 160.3239 199.9876 14.74941226 84519","2014-033G","40016","7023.474","97.631","679.759","610.920"
"GENERATED VIA SPACETRACK.ORG API","JSPOC","40715","DMC 3-FM1","PAYLOAD","U","15032A","2016-01-14 05:07:06","386304","14.73696042","0.0016305","98.0303","266.6532","8.4416","351.7026","0","999","2761","0.00042774","2.747e-05","0","1980120","0 DMC 3-FM1","1 40715U 15032A   16014.21326836  .00002747  00000-0  42774-3 0  9998","2 40715  98.0303 266.6532 0016305   8.4416 351.7026 14.73696042 27612","2015-032A","40715","7027.430","97.713","660.753","637.837"
"GENERATED VIA SPACETRACK.ORG API","JSPOC","40012","UNISAT 6","PAYLOAD","U","14033C","2016-01-14 05:07:09","321312","14.73145075","0.0059381","97.921","266.3415","163.1031","197.2174","0","999","8437","0.00010674","6.55e-06","0","1980085","0 UNISAT 6","1 40012U 14033C   16014.21330233  .00000655  00000-0  10674-3 0  9994","2 40012  97.9210 266.3415 0059381 163.1031 197.2174 14.73145075 84375","2014-033C","40012","7029.182","97.750","692.787","609.307"
"GENERATED VIA SPACETRACK.ORG API","JSPOC","1805","DIAMANT R/B","ROCKET BODY","U","65096B","2016-01-14 05:07:27","258816","13.78275756","0.0622832","34.2523","280.8344","243.8874","109.6421","0","999","47783","8.3789e-05","3.93e-06","0","1980153","0 DIAMANT R/B","1 01805U 65096B   16014.21350994  .00000393  00000-0  83789-4 0  9999","2 01805  34.2523 280.8344 0622832 243.8874 109.6421 13.78275756477836","1965-096B","1805","7348.145","104.478","1427.676","512.344"
"GENERATED VIA SPACETRACK.ORG API","JSPOC","11788","COSMOS 1176","PAYLOAD","U","80034A","2016-01-14 05:07:37","86816","13.92927764","0.0052368","64.8294","5.6084","323.7846","35.9675","0","999","81908","1.1627e-05","-7.7e-07","0","1980044","0 COSMOS 1176","1 11788U 80034A   16014.21362369 -.00000077  00000-0  11627-4 0  9990","2 11788  64.8294   5.6084 0052368 323.7846  35.9675 13.92927764819081","1980-034A","11788","7296.525","103.379","956.601","880.180"
"GENERATED VIA SPACETRACK.ORG API","JSPOC","40015","HODOYOSHI 3","PAYLOAD","U","14033F","2016-01-14 05:07:41","114784","14.77929223","0.0037807","97.9296","271.2296","156.6378","203.6561","0","999","8466","6.7898e-05","4.42e-06","0","1980086","0 HODOYOSHI 3","1 40015U 14033F   16014.21367031  .00000442  00000-0  67898-4 0  9998","2 40015  97.9296 271.2296 0037807 156.6378 203.6561 14.77929223 84667","2014-033F","40015","7014.005","97.433","662.388","609.352"
"GENERATED VIA SPACETRACK.ORG API","JSPOC","4363","TOPO 1","PAYLOAD","U","70025B","2016-01-14 05:07:43","209120","13.4654794","0.0001497","100.1127","259.6219","319.9708","152.8134","0","999","24926","4.0614e-05","-2.2e-07","0","1980004","0 TOPO 1","1 04363U 70025B   16014.21369455 -.00000022  00000-0  40614-4 0  9991","2 04363 100.1127 259.6219 0001497 319.9708 152.8134 13.46547940249262","1970-025B","4363","7463.123","106.940","1086.105","1083.871"
"GENERATED VIA SPACETRACK.ORG API","JSPOC","23620","COSMOS 2316 (GLONASS)","PAYLOAD","U","95037A","2016-01-14 05:08:12","76224","2.13101526","0.0012653","66.5483","327.1754","156.1629","276.1811","0","999","15937","0","-2.6e-07","0","1980032","0 COSMOS 2316 (GLONASS)","1 23620U 95037A   16014.21402866 -.00000026  00000-0  00000+0 0  9996","2 23620  66.5483 327.1754 0012653 156.1629 276.1811  2.13101526159375","1995-037A","23620","25508.062","675.734","19162.202","19097.651"
"GENERATED VIA SPACETRACK.ORG API","JSPOC","25460","ST 1","PAYLOAD","U","98049A","2016-01-14 05:08:19","860000","0.98748497","0.0007641","3.4833","68.6849","198.3363","117.8541","0","999","6358","0","-1.08e-06","0","1980064","0 ST 1","1 25460U 98049A   16014.21411875 -.00000108  00000-0  00000+0 0  9997","2 25460   3.4833  68.6849 0007641 198.3363 117.8541  0.98748497 63587","1998-049A","25460","42597.245","1458.250","36251.658","36186.561"
"GENERATED VIA SPACETRACK.ORG API","JSPOC","18096","SL-8 R/B","ROCKET BODY","U","87049B","2016-01-14 05:08:28","207968","14.36332912","0.0021121","74.0428","100.5597","36.7901","323.4697","0","999","49733","4.2352e-05","9.8e-07","0","1980074","0 SL-8 R/B","1 18096U 87049B   16014.21421537  .00000098  00000-0  42352-4 0  9996","2 18096  74.0428 100.5597 0021121  36.7901 323.4697 14.36332912497335","1987-049B","18096","7148.777","100.255","785.741","755.543"
"GENERATED VIA SPACETRACK.ORG API","JSPOC","14085","SL-8 R/B","ROCKET BODY","U","83048B","2016-01-14 05:08:37","883904","13.76267024","0.0034791","82.9453","115.7969","117.7278","304.6358","0","999","63914","5.8908e-05","7.3e-07","0","1980012","0 SL-8 R/B","1 14085U 83048B   16014.21432736  .00000073  00000-0  58908-4 0  9995","2 14085  82.9453 115.7969 0034791 117.7278 304.6358 13.76267024639146","1983-048B","14085","7355.294","104.630","1002.748","951.569"
"GENERATED VIA SPACETRACK.ORG API","JSPOC","28931","ALOS","PAYLOAD","U","06002A","2016-01-14 05:08:46","825440","14.62093676","0.0001877","97.9063","59.8754","116.3441","243.7954","0","999","53147","9.4774e-05","4.32e-06","0","1980019","0 ALOS","1 28931U 06002A   16014.21443085  .00000432  00000-0  94774-4 0  9994","2 28931  97.9063  59.8754 0001877 116.3441 243.7954 14.62093676531478","2006-002A","28931","7064.558","98.488","687.749","685.097"
